GSAT0216 (GALILEO 20)   
1 43056U 17079B   26194.11626651  .00000078  00000+0  00000+0 0  9995
2 43056  55.0684 220.7928 0004870 277.1661  82.8538  1.70474456 53445
GSAT0217 (GALILEO 21)   
1 43057U 17079C   26194.33707142  .00000076  00000+0  00000+0 0  9993
2 43057  55.0666 220.7845 0005106 288.0237  71.9947  1.70474139 53437
GSAT0218 (GALILEO 22)   
1 43058U 17079D   26192.79741165  .00000087  00000+0  00000+0 0  9997
2 43058  55.0670 220.8245 0005348 274.4620  85.5568  1.70474392 53432
BEIDOU-3 M7             
1 43107U 18003A   26194.12464266 -.00000066  00000+0  00000+0 0  9991
2 43107  54.3033 301.4109 0004476  98.5255 261.5490  1.86228142 57832
BEIDOU-3 M8             
1 43108U 18003B   26194.06900933 -.00000066  00000+0  00000+0 0  9991
2 43108  54.2962 301.3941 0003022 257.8979 102.0921  1.86231001 57842
BEIDOU-3 M4             
1 43207U 18018A   26193.97524829 -.00000039  00000+0  00000+0 0  9992
2 43207  56.6736  62.2990 0007447  28.6895 331.4231  1.86230771 57227
BEIDOU-3 M3             
1 43208U 18018B   26194.04174515 -.00000039  00000+0  00000+0 0  9995
2 43208  56.6731  62.3007 0007681 347.0461  13.0059  1.86230649 57225
BEIDOU-3 M9             
1 43245U 18029A   26194.25971301 -.00000062  00000+0  00000+0 0  9995
2 43245  54.1685 299.0367 0001281 186.5428 173.4840  1.86228102 56380
BEIDOU-3 M10            
1 43246U 18029B   26194.19393630 -.00000062  00000+0  00000+0 0  9992
2 43246  54.1663 299.0656 0003278  37.1365 322.9143  1.86229176 56364
IRNSS-1I                
1 43286U 18035A   26192.95526044  .00000056  00000+0  00000+0 0  9994
2 43286  28.8098  73.8104 0018194 177.6706  77.3491  1.00278376 30323
COSMOS 2527 [GLONASS-M] 
1 43508U 18053A   26194.36338399 -.00000010  00000+0  00000+0 0  9993
2 43508  65.5917  73.0349 0006512 230.5775 129.4370  2.13102148 62831
BEIDOU-2 IGSO-7         
1 43539U 18057A   26182.89122331 -.00000033  00000+0  00000+0 0  9998
2 43539  55.1981 162.9292 0104946 237.8611 308.6338  1.00246939 29273
GSAT0221 (GALILEO 25)   
1 43564U 18060A   26194.46121759 -.00000094  00000+0  00000+0 0  9996
2 43564  57.1602 341.0717 0002646 286.2656  73.6918  1.70476034 49617
GSAT0222 (GALILEO 26)   
1 43565U 18060B   26192.92116441 -.00000087  00000+0  00000+0 0  9990
2 43565  57.1642 341.1170 0002730 235.5377 124.4270  1.70475789 49631
GSAT0219 (GALILEO 23)   
1 43566U 18060C   26193.14202295 -.00000088  00000+0  00000+0 0  9990
2 43566  57.1635 341.1125 0001798 300.6290  59.3431  1.70476011 49617
GSAT0220 (GALILEO 24)   
1 43567U 18060D   26193.94960917 -.00000092  00000+0  00000+0 0  9996
2 43567  57.1627 341.0908 0002125 291.6687  68.2962  1.70475641 49617
BEIDOU-3 M5             
1 43581U 18062A   26193.34395808  .00000077  00000+0  00000+0 0  9991
2 43581  54.0867 181.4489 0005696 292.2984  67.6347  1.86228464 54104
BEIDOU-3 M6             
1 43582U 18062B   26194.28144978  .00000061  00000+0  00000+0 0  9999
2 43582  54.0859 181.4064 0005201   9.6286 350.3672  1.86227719 54129
BEIDOU-3 M12            
1 43602U 18067A   26194.21988417  .00000060  00000+0  00000+0 0  9993
2 43602  54.1816 180.1576 0007895  30.2072 329.8221  1.86227609 53605
BEIDOU-3 M11            
1 43603U 18067B   26193.28111065  .00000076  00000+0  00000+0 0  9994
2 43603  54.1790 180.1532 0004603  13.4814 346.5223  1.86227116 53612
BEIDOU-3 M13            
1 43622U 18072A   26194.30974843 -.00000039  00000+0  00000+0 0  9996
2 43622  56.6469  61.7986 0006254 333.6441  26.3967  1.86231218 53141
BEIDOU-3 M14            
1 43623U 18072B   26194.17517564 -.00000039  00000+0  00000+0 0  9995
2 43623  56.6490  61.7972 0005543  10.9566 349.1278  1.86231289 53132
BEIDOU-3 M16            
1 43647U 18078A   26194.33012617 -.00000062  00000+0  00000+0 0  9990
2 43647  54.0645 299.0691 0006650  39.9150 320.1624  1.86232180 52646
BEIDOU-3 M15            
1 43648U 18078B   26194.45939360 -.00000062  00000+0  00000+0 0  9997
2 43648  54.0601 299.0647 0003561  57.9247 302.1389  1.86232304 52663
BEIDOU-3 G1             
1 43683U 18085A   26194.60600523 -.00000116  00000+0  00000+0 0  9997
2 43683   2.9318  96.6605 0008031 355.9420 216.9964  1.00272578 28325
COSMOS 2529 [GLONASS-M] 
1 43687U 18086A   26192.11333993  .00000113  00000+0  00000+0 0  9996
2 43687  64.2969 191.7864 0012111 256.4030 103.4921  2.13101972 59794
BEIDOU-3 M17            
1 43706U 18093A   26194.28012927  .00000061  00000+0  00000+0 0  9999
2 43706  54.1701 181.4111 0010122 294.0353 197.1736  1.86228262 52029
BEIDOU-3 M18            
1 43707U 18093B   26192.87401650  .00000085  00000+0  00000+0 0  9994
2 43707  54.1711 181.4513 0008033 322.2876  37.6531  1.86226285 51998
NAVSTAR 77 (USA 289)    
1 43873U 18109A   26194.18797935 -.00000031  00000+0  00000+0 0  9998
2 43873  55.6972  91.1608 0038528 197.2241 340.2980  2.00562618 55598
BEIDOU-3 IGSO-1         
1 44204U 19023A   26194.49395858 -.00000204  00000+0  00000+0 0  9997
2 44204  58.7323  37.3789 0025734 224.1077 326.8166  1.00283496  7478
BEIDOU-2 G8             
1 44231U 19027A   26194.58965338 -.00000253  00000+0  00000+0 0  9991
2 44231   1.7216  74.4971 0009743 282.2689 291.4956  1.00272185 26342
